[{"OBJECT_NAME":"GEOSCAN 4 (RS92S4)","OBJECT_ID":"2025-155S","EPOCH":"2026-03-09T21:50:07.724832","MEAN_MOTION":15.30369837,"ECCENTRICITY":0.00070968,"INCLINATION":97.4465,"RA_OF_ASC_NODE":37.7626,"ARG_OF_PERICENTER":154.7045,"MEAN_ANOMALY":205.4544,"EPHEMERIS_TYPE":0,"CLASSIFICATION_TYPE":"U","NORAD_CAT_ID":64892,"ELEMENT_SET_NO":999,"REV_AT_EPOCH":6562,"BSTAR":0.00068609503,"MEAN_MOTION_DOT":0.00020121,"MEAN_MOTION_DDOT":0},{"OBJECT_NAME":"STARLINK-34888","OBJECT_ID":"2025-195P","EPOCH":"2026-03-09T22:55:30.190656","MEAN_MOTION":15.30204893,"ECCENTRICITY":0.00010146,"INCLINATION":53.1566,"RA_OF_ASC_NODE":256.9944,"ARG_OF_PERICENTER":72.2377,"MEAN_ANOMALY":287.8734,"EPHEMERIS_TYPE":0,"CLASSIFICATION_TYPE":"U","NORAD_CAT_ID":65471,"ELEMENT_SET_NO":999,"REV_AT_EPOCH":3003,"BSTAR":0.0007813874,"MEAN_MOTION_DOT":0.00022858,"MEAN_MOTION_DDOT":0}]
